OSCAR 7 (AO-7)          
1 07530U 74089B   26196.56642186 -.00000033  00000+0  81816-4 0  9999
2 07530 101.9906 210.1087 0012659  77.6753  53.4398 12.53698596364076
PHASE 3B (AO-10)        
1 14129U 83058B   26194.10401075 -.00000187  00000+0  00000+0 0  9996
2 14129  25.9345 215.2934 6002223 122.7887 309.2966  2.05872336296023
UOSAT 2 (UO-11)         
1 14781U 84021B   26196.47833492  .00000529  00000+0  59332-4 0  9991
2 14781  97.8076 161.7410 0009242  90.7162 269.5115 14.90849265261345
LUSAT (LO-19)           
1 20442U 90005G   26196.29868066  .00000038  00000+0  30320-4 0  9997
2 20442  98.8847 218.8780 0012544 121.1187 239.1229 14.34130762906429
EYESAT A (AO-27)        
1 22825U 93061C   26196.17910514  .00000039  00000+0  31759-4 0  9990
2 22825  98.6868 263.5806 0008763  25.9041 334.2579 14.30949052711000
ITAMSAT (IO-26)         
1 22826U 93061D   26196.15016185  .00000042  00000+0  32789-4 0  9998
2 22826  98.6816 263.4720 0008968   9.5131 350.6220 14.31376655711316
RADIO ROSTO (RS15)      
1 23439U 94085A   26196.49648903 -.00000040  00000+0  70627-4 0  9994
2 23439  64.8150 257.4334 0156926 358.6554   1.3929 11.27583515299091
JAS-2 (FO-29)           
1 24278U 96046B   26196.55347070  .00000004  00000+0  39317-4 0  9993
2 24278  98.5219  41.5371 0350345  23.0121 338.6291 13.53275706477008
TECHSAT 1B (GO-32)      
1 25397U 98043D   26196.51275166  .00000004  00000+0  21829-4 0  9996
2 25397  99.0085 189.9879 0002190 113.9012 246.2396 14.24433411455361
ISS (ZARYA)             
1 25544U 98067A   26196.37932006  .00003801  00000+0  77082-4 0  9993
2 25544  51.6310 160.5727 0006717 298.6245  61.4067 15.49014944576129
PCSAT (NO-44)           
1 26931U 01043C   26196.37675878  .00000009  00000+0  34418-4 0  9996
2 26931  67.0495 171.3598 0005919 266.6362  93.4063 14.31965034294481
SAUDISAT 1C (SO-50)     
1 27607U 02058C   26196.00432816  .00000376  00000+0  62404-4 0  9990
2 27607  64.5518  42.9159 0074536 257.3021 101.9746 14.83098196268584
CUTE-1 (CO-55)          
1 27844U 03031E   26196.48745324  .00000133  00000+0  76487-4 0  9995
2 27844  98.6744 204.6909 0010836 101.9513 258.2882 14.24351670195703
CUBESAT XI-IV (CO-57)   
1 27848U 03031J   26196.49013580  .00000112  00000+0  68039-4 0  9993
2 27848  98.6774 204.3834 0010557 118.6468 241.5773 14.23634657195407
MOZHAETS 4 (RS22)       
1 27939U 03042A   26196.60263115  .00000129  00000+0  28142-4 0  9999
2 27939  98.3468  21.7656 0011257 171.9727 278.6707 14.73513794219730
CUBESAT XI-V            
1 28895U 05043F   26196.39580506  .00000649  00000+0  10993-3 0  9997
2 28895  98.3015 352.6157 0015254 114.6608 245.6189 14.72702525105907
CUTE-1.7+APD II (CO-65) 
1 32785U 08021C   26196.48612020  .00002670  00000+0  16980-3 0  9994
2 32785  97.8293 178.5012 0006993 298.3489  61.7034 15.09702643989463
SEEDS II (CO-66)        
1 32791U 08021J   26196.52520748  .00011174  00000+0  34561-3 0  9995
2 32791  97.7522 195.7974 0003105 155.6560 204.4829 15.33674625991634
YUBILEINY (RS30)        
1 32953U 08025A   26196.58770150 -.00000030  00000+0 -28847-3 0  9990
2 32953  82.5058 337.7721 0018597 248.1249 111.7854 12.43180502823222
KKS-1 (KISEKI)          
1 33499U 09002H   26196.59174493  .00000605  00000+0  80892-4 0  9996
2 33499  98.1174 119.4840 0007464 187.5452 172.5650 14.83189815940401
SWISSCUBE               
1 35932U 09051B   26195.74040393  .00000468  00000+0  10206-3 0  9999
2 35932  98.4008 104.1063 0007823 120.2894 239.9082 14.62530263893188
BEESAT-1                
1 35933U 09051C   26196.31185738  .00000377  00000+0  85523-4 0  9991
2 35933  98.3935 104.2639 0006132 129.5089 230.6654 14.61761931893299
ITUPSAT1                
1 35935U 09051E   26196.19038705  .00000349  00000+0  82054-4 0  9995
2 35935  98.4018 103.3025 0008086 143.1681 217.0076 14.60478742892822
XIWANG-1 (HOPE-1)       
1 36122U 09072B   26196.59155046  .00000117  00000+0  42293-3 0  9992
2 36122 100.4036 149.9720 0007545 163.8959 196.2396 13.16441026796741
O/OREOS (USA 219)       
1 37224U 10062C   26196.52320281  .00001054  00000+0  10509-3 0  9991
2 37224  71.9698  16.1455 0013971   4.4309 355.6982 14.93852551120872
JUGNU                   
1 37839U 11058B   26196.03820900  .00000342  00000+0  39232-4 0  9992
2 37839  19.9594 139.2172 0018562  24.7595  57.8710 14.13783475762970
SRMSAT                  
1 37841U 11058D   26196.43842265  .00000333  00000+0  37014-4 0  9993
2 37841  19.9710 248.4743 0011765 153.8769 331.6515 14.11581130761815
STRAND-1                
1 39090U 13009E   26196.46154306  .00000118  00000+0  54112-4 0  9993
2 39090  98.3934  16.0018 0009420 140.3556 219.8321 14.37178942701127
ZACUBE-1 (TSHEPISOSAT)  
1 39417U 13066B   26196.53453899  .00001324  00000+0  10569-3 0  9993
2 39417  97.8008 159.0111 0044037 154.1192 206.2248 15.01329961684983
GOMX-1                  
1 39430U 13066Q   26196.51166578  .00000718  00000+0  11452-3 0  9999
2 39430  97.6466  35.1869 0128209 347.1944  12.6016 14.69543287674074
